GLOBALSTAR M024 [-]     
1 25883U 99043A   23305.40904170  .00000003  00000+0  23947-2 0  9998
2 25883  52.0021 280.3744 0000961 194.6510 336.4308 11.10156953 48919
GLOBALSTAR M027 [-]     
1 25884U 99043B   23305.55210011  .00000009  00000+0  27394-2 0  9995
2 25884  52.0241 341.2221 0021513 112.8274 247.4793 11.04365755 75651
GLOBALSTAR M054 [-]     
1 25885U 99043C   23305.48373124 -.00000123  00000+0 -13255-2 0  9993
2 25885  52.0129 208.3001 0003743 224.2460 307.1913 11.39202850 51382
GLOBALSTAR M053 [-]     
1 25886U 99043D   23305.02145764 -.00000072  00000+0 -95270-4 0  9993
2 25886  51.9948 123.5407 0004054 139.5484  39.9181 11.27652106 52410
GLOBALSTAR M058 [-]     
1 25907U 99049A   23305.53646842 -.00000046  00000+0  51595-3 0  9993
2 25907  51.9935 254.3338 0001897 196.0638 164.0137 11.93167988 81883
GLOBALSTAR M050 [-]     
1 25908U 99049B   23305.44379685 -.00000024  00000+0  72421-3 0  9999
2 25908  52.0001 306.6158 0008840 290.5256 236.6115 12.07423840 76460
GLOBALSTAR M033 [-]     
1 25909U 99049C   23305.74553515 -.00000152  00000+0 -58336-3 0  9991
2 25909  51.9909 218.6079 0011809 130.6136 229.5740 12.20259617 96023
GLOBALSTAR M055 [-]     
1 25910U 99049D   23305.59139025 -.00000054  00000+0  34421-3 0  9991
2 25910  52.0016 258.6746 0007209 343.8325  16.2295 12.29389994 95271
